HAIYANG-1B              
1 31113U 07010A   17346.40201447 -.00000019  00000-0  94203-5 0  9994
2 31113  98.5355  38.3217 0014801  43.4403 316.7944 14.30187566556946
